{
  "type": "FeatureCollection",
  "features": [
    {
      "type": "Feature",
      "properties": {
        "norad_id": 66463,
        "name": "STARLINK-35463",
        "group": "last-30-days",
        "lat": 32.782916278766045,
        "lon": 101.09963409387395,
        "alt_km": 439.32142503371597,
        "timestamp": "2025-12-15T04:01:19.178523+00:00",
        "meta_object_name": "STARLINK-35463",
        "meta_object_id": "2025-262H",
        "meta_epoch": "2025-12-14T06:00:44.746560",
        "meta_mean_motion": 15.40655179,
        "meta_eccentricity": 9.815e-05,
        "meta_inclination": 42.9991,
        "meta_ra_of_asc_node": 62.6641,
        "meta_arg_of_pericenter": 249.3838,
        "meta_mean_anomaly": 110.6914,
        "meta_ephemeris_type": 0,
        "meta_classification_type": "U",
        "meta_norad_cat_id": 66463,
        "meta_element_set_no": 999,
        "meta_rev_at_epoch": 579,
        "meta_bstar": 0.0010765274,
        "meta_mean_motion_dot": 0.00044863,
        "meta_mean_motion_ddot": 0,
        "tle_line1": "1 66463U 25262H   25348.25051790  .00044863  00000+0  10765-2 0  9998",
        "tle_line2": "2 66463  42.9991  62.6641 0000981 249.3838 110.6914 15.40655179  5797"
      },
      "geometry": {
        "type": "Point",
        "coordinates": [
          101.09963409387395,
          32.782916278766045
        ]
      }
    },
    {
      "type": "Feature",
      "properties": {
        "norad_id": 66464,
        "name": "STARLINK-35435",
        "group": "last-30-days",
        "lat": 26.144104626510426,
        "lon": 89.19210104163196,
        "alt_km": 440.43829696444936,
        "timestamp": "2025-12-15T04:01:19.178535+00:00",
        "meta_object_name": "STARLINK-35435",
        "meta_object_id": "2025-262J",
        "meta_epoch": "2025-12-14T06:03:58.025088",
        "meta_mean_motion": 15.40678421,
        "meta_eccentricity": 0.00015488,
        "meta_inclination": 43.0015,
        "meta_ra_of_asc_node": 62.6813,
        "meta_arg_of_pericenter": 254.8467,
        "meta_mean_anomaly": 105.2218,
        "meta_ephemeris_type": 0,
        "meta_classification_type": "U",
        "meta_norad_cat_id": 66464,
        "meta_element_set_no": 999,
        "meta_rev_at_epoch": 579,
        "meta_bstar": 0.0013927105,
        "meta_mean_motion_dot": 0.00058277,
        "meta_mean_motion_ddot": 0,
        "tle_line1": "1 66464U 25262J   25348.25275492  .00058277  00000+0  13927-2 0  9993",
        "tle_line2": "2 66464  43.0015  62.6813 0001548 254.8467 105.2218 15.40678421  5799"
      },
      "geometry": {
        "type": "Point",
        "coordinates": [
          89.19210104163196,
          26.144104626510426
        ]
      }
    },
    {
      "type": "Feature",
      "properties": {
        "norad_id": 66465,
        "name": "STARLINK-35448",
        "group": "last-30-days",
        "lat": 41.74447469434517,
        "lon": 130.57523237137735,
        "alt_km": 438.00284095663574,
        "timestamp": "2025-12-15T04:01:19.178550+00:00",
        "meta_object_name": "STARLINK-35448",
        "meta_object_id": "2025-262K",
        "meta_epoch": "2025-12-14T06:00:02.999808",
        "meta_mean_motion": 15.40663166,
        "meta_eccentricity": 0.00012594,
        "meta_inclination": 43.0004,
        "meta_ra_of_asc_node": 62.6073,
        "meta_arg_of_pericenter": 261.4614,
        "meta_mean_anomaly": 120.8186,
        "meta_ephemeris_type": 0,
        "meta_classification_type": "U",
        "meta_norad_cat_id": 66465,
        "meta_element_set_no": 999,
        "meta_rev_at_epoch": 588,
        "meta_bstar": 0.0015471734,
        "meta_mean_motion_dot": 0.00064797,
        "meta_mean_motion_ddot": 0,
        "tle_line1": "1 66465U 25262K   25348.25003472  .00064797  00000+0  15472-2 0  9992",
        "tle_line2": "2 66465  43.0004  62.6073 0001259 261.4614 120.8186 15.40663166  5880"
      },
      "geometry": {
        "type": "Point",
        "coordinates": [
          130.57523237137735,
          41.74447469434517
        ]
      }
    },
    {
      "type": "Feature",
      "properties": {
        "norad_id": 66466,
        "name": "STARLINK-35388",
        "group": "last-30-days",
        "lat": 42.98012719506951,
        "lon": 147.30429192690187,
        "alt_km": 438.0339201769293,
        "timestamp": "2025-12-15T04:01:19.178564+00:00",
        "meta_object_name": "STARLINK-35388",
        "meta_object_id": "2025-262L",
        "meta_epoch": "2025-12-14T06:00:02.999808",
        "meta_mean_motion": 15.40668059,
        "meta_eccentricity": 0.00014748,
        "meta_inclination": 43.0004,
        "meta_ra_of_asc_node": 62.5757,
        "meta_arg_of_pericenter": 260.9405,
        "meta_mean_anomaly": 133.7758,
        "meta_ephemeris_type": 0,
        "meta_classification_type": "U",
        "meta_norad_cat_id": 66466,
        "meta_element_set_no": 999,
        "meta_rev_at_epoch": 588,
        "meta_bstar": 0.0012222448,
        "meta_mean_motion_dot": 0.00051041,
        "meta_mean_motion_ddot": 0,
        "tle_line1": "1 66466U 25262L   25348.25003472  .00051041  00000+0  12222-2 0  9991",
        "tle_line2": "2 66466  43.0004  62.5757 0001474 260.9405 133.7758 15.40668059  5884"
      },
      "geometry": {
        "type": "Point",
        "coordinates": [
          147.30429192690187,
          42.98012719506951
        ]
      }
    },
    {
      "type": "Feature",
      "properties": {
        "norad_id": 66467,
        "name": "STARLINK-35682",
        "group": "last-30-days",
        "lat": 38.1900777203814,
        "lon": 114.92728438100553,
        "alt_km": 438.88264365807026,
        "timestamp": "2025-12-15T04:01:19.178575+00:00",
        "meta_object_name": "STARLINK-35682",
        "meta_object_id": "2025-262M",
        "meta_epoch": "2025-12-14T00:00:04.000320",
        "meta_mean_motion": 15.40649325,
        "meta_eccentricity": 0.00016546,
        "meta_inclination": 43.0009,
        "meta_ra_of_asc_node": 64.0766,
        "meta_arg_of_pericenter": 260.4818,
        "meta_mean_anomaly": 161.1928,
        "meta_ephemeris_type": 0,
        "meta_classification_type": "U",
        "meta_norad_cat_id": 66467,
        "meta_element_set_no": 999,
        "meta_rev_at_epoch": 584,
        "meta_bstar": 0.00089064183,
        "meta_mean_motion_dot": 0.00037019,
        "meta_mean_motion_ddot": 0,
        "tle_line1": "1 66467U 25262M   25348.00004630  .00037019  00000+0  89064-3 0  9990",
        "tle_line2": "2 66467  43.0009  64.0766 0001654 260.4818 161.1928 15.40649325  5845"
      },
      "geometry": {
        "type": "Point",
        "coordinates": [
          114.92728438100553,
          38.1900777203814
        ]
      }
    },
    {
      "type": "Feature",
      "properties": {
        "norad_id": 66468,
        "name": "STARLINK-35331",
        "group": "last-30-days",
        "lat": 41.726937850073355,
        "lon": 164.1155934272057,
        "alt_km": 438.0763912798184,
        "timestamp": "2025-12-15T04:01:19.178586+00:00",
        "meta_object_name": "STARLINK-35331",
        "meta_object_id": "2025-262N",
        "meta_epoch": "2025-12-14T06:00:02.999808",
        "meta_mean_motion": 15.40674765,
        "meta_eccentricity": 0.00012984,
        "meta_inclination": 43.0003,
        "meta_ra_of_asc_node": 62.545,
        "meta_arg_of_pericenter": 267.4623,
        "meta_mean_anomaly": 139.7043,
        "meta_ephemeris_type": 0,
        "meta_classification_type": "U",
        "meta_norad_cat_id": 66468,
        "meta_element_set_no": 999,
        "meta_rev_at_epoch": 588,
        "meta_bstar": 0.0012200852,
        "meta_mean_motion_dot": 0.0005096,
        "meta_mean_motion_ddot": 0,
        "tle_line1": "1 66468U 25262N   25348.25003472  .00050960  00000+0  12201-2 0  9999",
        "tle_line2": "2 66468  43.0003  62.5450 0001298 267.4623 139.7043 15.40674765  5887"
      },
      "geometry": {
        "type": "Point",
        "coordinates": [
          164.1155934272057,
          41.726937850073355
        ]
      }
    },
    {
      "type": "Feature",
      "properties": {
        "norad_id": 66469,
        "name": "STARLINK-35451",
        "group": "last-30-days",
        "lat": -42.478648425481325,
        "lon": -43.83723499142954,
        "alt_km": 416.1696617639882,
        "timestamp": "2025-12-15T04:01:19.178597+00:00",
        "meta_object_name": "STARLINK-35451",
        "meta_object_id": "2025-262P",
        "meta_epoch": "2025-12-12T13:03:41.779584",
        "meta_mean_motion": 15.50210236,
        "meta_eccentricity": 0.00011033,
        "meta_inclination": 42.9999,
        "meta_ra_of_asc_node": 72.2116,
        "meta_arg_of_pericenter": 239.0773,
        "meta_mean_anomaly": 120.9979,
        "meta_ephemeris_type": 0,
        "meta_classification_type": "U",
        "meta_norad_cat_id": 66469,
        "meta_element_set_no": 999,
        "meta_rev_at_epoch": 553,
        "meta_bstar": 0.0029076405,
        "meta_mean_motion_dot": 0.00171764,
        "meta_mean_motion_ddot": 0,
        "tle_line1": "1 66469U 25262P   25346.54423356  .00171764  00000+0  29076-2 0  9991",
        "tle_line2": "2 66469  42.9999  72.2116 0001103 239.0773 120.9979 15.50210236  5535"
      },
      "geometry": {
        "type": "Point",
        "coordinates": [
          -43.83723499142954,
          -42.478648425481325
        ]
      }
    }
  ]
}